[{"OBJECT_NAME":"ASTROCAST-0403","OBJECT_ID":"2023-001DG","EPOCH":"2026-03-09T19:45:35.762976","MEAN_MOTION":15.28004949,"ECCENTRICITY":0.00047706,"INCLINATION":97.5604,"RA_OF_ASC_NODE":161.3228,"ARG_OF_PERICENTER":338.0704,"MEAN_ANOMALY":22.033,"EPHEMERIS_TYPE":0,"CLASSIFICATION_TYPE":"U","NORAD_CAT_ID":55111,"ELEMENT_SET_NO":999,"REV_AT_EPOCH":12937,"BSTAR":0.0005131719,"MEAN_MOTION_DOT":0.00013959,"MEAN_MOTION_DDOT":0},{"OBJECT_NAME":"STARLINK-31857","OBJECT_ID":"2024-097J","EPOCH":"2026-03-08T23:42:56.516832","MEAN_MOTION":15.27571569,"ECCENTRICITY":0.00014852,"INCLINATION":43.001,"RA_OF_ASC_NODE":277.9601,"ARG_OF_PERICENTER":256.6613,"MEAN_ANOMALY":103.4073,"EPHEMERIS_TYPE":0,"CLASSIFICATION_TYPE":"U","NORAD_CAT_ID":59843,"ELEMENT_SET_NO":999,"REV_AT_EPOCH":10181,"BSTAR":-2.3672732e-5,"MEAN_MOTION_DOT":-9.13e-6,"MEAN_MOTION_DDOT":0}]
